[
    {
        "Altitude(m)": 612502.23811995,
        "Argument of Periapsis(deg)": 0.0,
        "Eccentricity": 0.0,
        "Inclination(deg)": 60.0,
        "Latitude(deg)": -28.136113930907563,
        "Longitude(deg)": -27.851706243438276,
        "Mean Anomaly(deg)": -32.72730000000001,
        "RAAN(deg)": 90.0,
        "Satellite Name": "Test1 416",
        "Satellite Number": 416,
        "Semi-Major Axis(m)": 6980739.136638005,
        "Time(s)": 0
    },
    {
        "Altitude(m)": 612308.6853215809,
        "Argument of Periapsis(deg)": 0.00010418945913296404,
        "Eccentricity": 0.0,
        "Inclination(deg)": 60.0,
        "Latitude(deg)": -27.623168729092583,
        "Longitude(deg)": -27.49823259558258,
        "Mean Anomaly(deg)": -32.10719385453817,
        "RAAN(deg)": 89.99957995086027,
        "Satellite Name": "Test1 416",
        "Satellite Number": 416,
        "Semi-Major Axis(m)": 6980739.136638005,
        "Time(s)": 10
    }
]